start=new Date('2022-08-17T00:00:00.000Z').valueOf();
sats=[{"BSTAR":"0.00083926000000","LAUNCH_DATE":"2022-04-29","ECCENTRICITY":"0.00019960","COUNTRY_CODE":"US","ELEMENT_SET_NO":"999","OBJECT_ID":"2022-045Z","EPHEMERIS_TYPE":"0","SEMIMAJOR_AXIS":"6917.894","REF_FRAME":"TEME","MEAN_ANOMALY":"306.8264","EPOCH":"2022-08-16T22:00:00.999936","OBJECT_NAME":"STARLINK-3876","MEAN_MOTION_DDOT":"0.0000000000000","OBJECT_TYPE":"PAYLOAD","REV_AT_EPOCH":"130","CENTER_NAME":"EARTH","TIME_SYSTEM":"UTC","RA_OF_ASC_NODE":"278.5070","INCLINATION":"53.2167","ARG_OF_PERICENTER":"46.6093","CLASSIFICATION_TYPE":"U","PERIOD":"95.438","NORAD_CAT_ID":"52354","MEAN_ELEMENT_THEORY":"SGP4","RCS_SIZE":"LARGE","GP_ID":"210370391","TLE_LINE1":"1 52354U 22045Z   22228.91667824  .00013092  00000-0  83926-3 0  9997","FILE":"3538178","APOAPSIS":"541.140","SITE":"AFETR","TLE_LINE2":"2 52354  53.2167 278.5070 0001996  46.6093 306.8264 15.08835420  1306","MEAN_MOTION":"15.08835420","MEAN_MOTION_DOT":"0.00013092","DECAY_DATE":null,"PERIAPSIS":"538.379"},{"MEAN_ELEMENT_THEORY":"SGP4","NORAD_CAT_ID":"52355","PERIOD":"95.438","ARG_OF_PERICENTER":"48.5096","CLASSIFICATION_TYPE":"U","TLE_LINE1":"1 52355U 22045AA  22228.91667824  .00003624  00000-0  24571-3 0  9999","RCS_SIZE":"LARGE","GP_ID":"210370118","TLE_LINE2":"2 52355  53.2173 278.5149 0001910  48.5096 224.9389 15.08839374  1301","SITE":"AFETR","APOAPSIS":"541.069","FILE":"3538178","PERIAPSIS":"538.426","DECAY_DATE":null,"MEAN_MOTION":"15.08839374","MEAN_MOTION_DOT":"0.00003624","ECCENTRICITY":"0.00019100","LAUNCH_DATE":"2022-04-29","BSTAR":"0.00024571000000","SEMIMAJOR_AXIS":"6917.882","REF_FRAME":"TEME","EPOCH":"2022-08-16T22:00:00.999936","MEAN_ANOMALY":"224.9389","EPHEMERIS_TYPE":"0","OBJECT_ID":"2022-045AA","COUNTRY_CODE":"US","ELEMENT_SET_NO":"999","TIME_SYSTEM":"UTC","OBJECT_TYPE":"PAYLOAD","REV_AT_EPOCH":"130","CENTER_NAME":"EARTH","MEAN_MOTION_DDOT":"0.0000000000000","OBJECT_NAME":"STARLINK-3877","RA_OF_ASC_NODE":"278.5149","INCLINATION":"53.2173"},{"EPHEMERIS_TYPE":"0","SEMIMAJOR_AXIS":"6917.880","MEAN_ANOMALY":"294.2319","EPOCH":"2022-08-16T22:00:00.999936","REF_FRAME":"TEME","COUNTRY_CODE":"US","ELEMENT_SET_NO":"999","OBJECT_ID":"2022-045AB","LAUNCH_DATE":"2022-04-29","ECCENTRICITY":"0.00018190","BSTAR":"0.00087767000000","INCLINATION":"53.2153","RA_OF_ASC_NODE":"278.4994","OBJECT_TYPE":"PAYLOAD","REV_AT_EPOCH":"130","CENTER_NAME":"EARTH","TIME_SYSTEM":"UTC","OBJECT_NAME":"STARLINK-3801","MEAN_MOTION_DDOT":"0.0000000000000","TLE_LINE1":"1 52356U 22045AB  22228.91667824  .00013708  00000-0  87767-3 0  9990","RCS_SIZE":"LARGE","GP_ID":"210370255","NORAD_CAT_ID":"52356","MEAN_ELEMENT_THEORY":"SGP4","ARG_OF_PERICENTER":"53.8720","CLASSIFICATION_TYPE":"U","PERIOD":"95.438","DECAY_DATE":null,"PERIAPSIS":"538.487","MEAN_MOTION":"15.08840065","MEAN_MOTION_DOT":"0.00013708","TLE_LINE2":"2 52356  53.2153 278.4994 0001819  53.8720 294.2319 15.08840065  1300","APOAPSIS":"541.004","FILE":"3538178","SITE":"AFETR"},{"PERIAPSIS":"538.322","DECAY_DATE":null,"MEAN_MOTION":"15.08840467","MEAN_MOTION_DOT":"0.00011191","TLE_LINE2":"2 52357  53.2184 278.5113 0002055  41.0827 272.3421 15.08840467  1306","SITE":"AFETR","FILE":"3538178","APOAPSIS":"541.166","TLE_LINE1":"1 52357U 22045AC  22228.91667824  .00011191  00000-0  72012-3 0  9992","RCS_SIZE":"LARGE","GP_ID":"210370664","MEAN_ELEMENT_THEORY":"SGP4","NORAD_CAT_ID":"52357","PERIOD":"95.438","ARG_OF_PERICENTER":"41.0827","CLASSIFICATION_TYPE":"U","RA_OF_ASC_NODE":"278.5113","INCLINATION":"53.2184","TIME_SYSTEM":"UTC","OBJECT_TYPE":"PAYLOAD","CENTER_NAME":"EARTH","REV_AT_EPOCH":"130","MEAN_MOTION_DDOT":"0.0000000000000","OBJECT_NAME":"STARLINK-3821","SEMIMAJOR_AXIS":"6917.879","REF_FRAME":"TEME","MEAN_ANOMALY":"272.3421","EPOCH":"2022-08-16T22:00:00.999936","EPHEMERIS_TYPE":"0","OBJECT_ID":"2022-045AC","COUNTRY_CODE":"US","ELEMENT_SET_NO":"999","ECCENTRICITY":"0.00020550","LAUNCH_DATE":"2022-04-29","BSTAR":"0.00072012000000"},{"MEAN_MOTION":"15.08825969","MEAN_MOTION_DOT":"0.00013736","PERIAPSIS":"538.752","DECAY_DATE":null,"SITE":"AFETR","FILE":"3538178","APOAPSIS":"540.825","TLE_LINE2":"2 52358  53.2164 278.4992 0001498  46.1739   7.2569 15.08825969  1305","RCS_SIZE":"LARGE","GP_ID":"210369983","TLE_LINE1":"1 52358U 22045AD  22228.91667824  .00013736  00000-0  87975-3 0  9994","PERIOD":"95.438","ARG_OF_PERICENTER":"46.1739","CLASSIFICATION_TYPE":"U","NORAD_CAT_ID":"52358","MEAN_ELEMENT_THEORY":"SGP4","INCLINATION":"53.2164","RA_OF_ASC_NODE":"278.4992","MEAN_MOTION_DDOT":"0.0000000000000","OBJECT_NAME":"STARLINK-3837","TIME_SYSTEM":"UTC","OBJECT_TYPE":"PAYLOAD","REV_AT_EPOCH":"130","CENTER_NAME":"EARTH","COUNTRY_CODE":"US","OBJECT_ID":"2022-045AD","ELEMENT_SET_NO":"999","SEMIMAJOR_AXIS":"6917.923","REF_FRAME":"TEME","MEAN_ANOMALY":"7.2569","EPOCH":"2022-08-16T22:00:00.999936","EPHEMERIS_TYPE":"0","BSTAR":"0.00087975000000","ECCENTRICITY":"0.00014980","LAUNCH_DATE":"2022-04-29"},{"MEAN_MOTION_DOT":"-0.00028760","MEAN_MOTION":"15.08854396","DECAY_DATE":null,"PERIAPSIS":"538.417","APOAPSIS":"540.986","FILE":"3538178","SITE":"AFETR","TLE_LINE2":"2 52359  53.2177 278.5104 0001857  48.6824 284.7224 15.08854396  1303","GP_ID":"210369711","RCS_SIZE":"LARGE","TLE_LINE1":"1 52359U 22045AE  22228.91667824 -.00028760  00000-0 -17954-2 0  9999","CLASSIFICATION_TYPE":"U","ARG_OF_PERICENTER":"48.6824","PERIOD":"95.437","NORAD_CAT_ID":"52359","MEAN_ELEMENT_THEORY":"SGP4","INCLINATION":"53.2177","RA_OF_ASC_NODE":"278.5104","OBJECT_NAME":"STARLINK-3853","MEAN_MOTION_DDOT":"0.0000000000000","CENTER_NAME":"EARTH","REV_AT_EPOCH":"130","OBJECT_TYPE":"PAYLOAD","TIME_SYSTEM":"UTC","ELEMENT_SET_NO":"999","COUNTRY_CODE":"US","OBJECT_ID":"2022-045AE","EPHEMERIS_TYPE":"0","MEAN_ANOMALY":"284.7224","SEMIMAJOR_AXIS":"6917.836","EPOCH":"2022-08-16T22:00:00.999936","REF_FRAME":"TEME","BSTAR":"-0.00179540000000","LAUNCH_DATE":"2022-04-29","ECCENTRICITY":"0.00018570"},{"NORAD_CAT_ID":"52360","MEAN_ELEMENT_THEORY":"SGP4","PERIOD":"95.439","CLASSIFICATION_TYPE":"U","ARG_OF_PERICENTER":"54.7256","TLE_LINE1":"1 52360U 22045AF  22228.91667824  .00025815  00000-0  16348-2 0  9993","GP_ID":"210369847","RCS_SIZE":"LARGE","TLE_LINE2":"2 52360  53.2150 268.5228 0001709  54.7256  33.6830 15.08824806  1302","SITE":"AFETR","APOAPSIS":"540.974","FILE":"3538178","PERIAPSIS":"538.610","DECAY_DATE":null,"MEAN_MOTION_DOT":"0.00025815","MEAN_MOTION":"15.08824806","ECCENTRICITY":"0.00017090","LAUNCH_DATE":"2022-04-29","BSTAR":"0.00163480000000","SEMIMAJOR_AXIS":"6917.927","REF_FRAME":"TEME","EPOCH":"2022-08-16T22:00:00.999936","MEAN_ANOMALY":"33.6830","EPHEMERIS_TYPE":"0","COUNTRY_CODE":"US","OBJECT_ID":"2022-045AF","ELEMENT_SET_NO":"999","TIME_SYSTEM":"UTC","REV_AT_EPOCH":"130","CENTER_NAME":"EARTH","OBJECT_TYPE":"PAYLOAD","MEAN_MOTION_DDOT":"0.0000000000000","OBJECT_NAME":"STARLINK-3824","RA_OF_ASC_NODE":"268.5228","INCLINATION":"53.2150"},{"SITE":"AFETR","APOAPSIS":"541.183","FILE":"3538178","TLE_LINE2":"2 52361  53.2166 278.5059 0002065  47.0065 326.4260 15.08837082  1302","MEAN_MOTION_DOT":"0.00013419","MEAN_MOTION":"15.08837082","PERIAPSIS":"538.326","DECAY_DATE":null,"PERIOD":"95.438","CLASSIFICATION_TYPE":"U","ARG_OF_PERICENTER":"47.0065","MEAN_ELEMENT_THEORY":"SGP4","NORAD_CAT_ID":"52361","GP_ID":"210370528","RCS_SIZE":"LARGE","TLE_LINE1":"1 52361U 22045AG  22228.91667824  .00013419  00000-0  85968-3 0  9996","MEAN_MOTION_DDOT":"0.0000000000000","OBJECT_NAME":"STARLINK-3728","TIME_SYSTEM":"UTC","REV_AT_EPOCH":"130","CENTER_NAME":"EARTH","OBJECT_TYPE":"PAYLOAD","INCLINATION":"53.2166","RA_OF_ASC_NODE":"278.5059","BSTAR":"0.00085968000000","ECCENTRICITY":"0.00020650","LAUNCH_DATE":"2022-04-29","COUNTRY_CODE":"US","ELEMENT_SET_NO":"999","OBJECT_ID":"2022-045AG","MEAN_ANOMALY":"326.4260","SEMIMAJOR_AXIS":"6917.889","EPOCH":"2022-08-16T22:00:00.999936","REF_FRAME":"TEME","EPHEMERIS_TYPE":"0"},{"TLE_LINE2":"2 52362  53.2145 268.5214 0001758  40.3961  68.0122 15.08817202  1309","SITE":"AFETR","FILE":"3538178","APOAPSIS":"541.031","PERIAPSIS":"538.599","DECAY_DATE":null,"MEAN_MOTION":"15.08817202","MEAN_MOTION_DOT":"0.00025734","MEAN_ELEMENT_THEORY":"SGP4","NORAD_CAT_ID":"52362","PERIOD":"95.439","ARG_OF_PERICENTER":"40.3961","CLASSIFICATION_TYPE":"U","TLE_LINE1":"1 52362U 22045AH  22228.91667824  .00025734  00000-0  16301-2 0  9994","RCS_SIZE":"LARGE","GP_ID":"210370392","TIME_SYSTEM":"UTC","OBJECT_TYPE":"PAYLOAD","REV_AT_EPOCH":"130","CENTER_NAME":"EARTH","MEAN_MOTION_DDOT":"0.0000000000000","OBJECT_NAME":"STARLINK-3848","INCLINATION":"53.2145","RA_OF_ASC_NODE":"268.5214","ECCENTRICITY":"0.00017580","LAUNCH_DATE":"2022-04-29","BSTAR":"0.00163010000000","SEMIMAJOR_AXIS":"6917.950","REF_FRAME":"TEME","MEAN_ANOMALY":"68.0122","EPOCH":"2022-08-16T22:00:00.999936","EPHEMERIS_TYPE":"0","COUNTRY_CODE":"US","OBJECT_ID":"2022-045AH","ELEMENT_SET_NO":"999"},{"ELEMENT_SET_NO":"999","COUNTRY_CODE":"US","OBJECT_ID":"2022-045AJ","SEMIMAJOR_AXIS":"6917.913","REF_FRAME":"TEME","EPOCH":"2022-08-16T22:00:00.999936","MEAN_ANOMALY":"346.3118","EPHEMERIS_TYPE":"0","BSTAR":"0.00084895000000","ECCENTRICITY":"0.00016150","LAUNCH_DATE":"2022-04-29","RA_OF_ASC_NODE":"278.5012","INCLINATION":"53.2153","MEAN_MOTION_DDOT":"0.0000000000000","OBJECT_NAME":"STARLINK-3830","TIME_SYSTEM":"UTC","REV_AT_EPOCH":"130","CENTER_NAME":"EARTH","OBJECT_TYPE":"PAYLOAD","GP_ID":"210370119","RCS_SIZE":"LARGE","TLE_LINE1":"1 52363U 22045AJ  22228.91667824  .00013245  00000-0  84895-3 0  9993","PERIOD":"95.438","CLASSIFICATION_TYPE":"U","ARG_OF_PERICENTER":"47.1141","NORAD_CAT_ID":"52363","MEAN_ELEMENT_THEORY":"SGP4","MEAN_MOTION_DOT":"0.00013245","MEAN_MOTION":"15.08829174","PERIAPSIS":"538.661","DECAY_DATE":null,"SITE":"AFETR","APOAPSIS":"540.896","FILE":"3538178","TLE_LINE2":"2 52363  53.2153 278.5012 0001615  47.1141 346.3118 15.08829174  1301"}];
